OBJECT_NAME,OBJECT_ID,EPOCH,MEAN_MOTION,ECCENTRICITY,INCLINATION,RA_OF_ASC_NODE,ARG_OF_PERICENTER,MEAN_ANOMALY,EPHEMERIS_TYPE,CLASSIFICATION_TYPE,NORAD_CAT_ID,ELEMENT_SET_NO,REV_AT_EPOCH,BSTAR,MEAN_MOTION_DOT,MEAN_MOTION_DDOT
JCSAT-3A,2006-033A,2026-07-07T12:38:36.227616,1.00272129,.00025445,0.0330,285.8549,194.0272,123.2632,0,U,29272,999,4794,0,-.329E-5,0
KOREASAT 5 (MUGUNGWHA 5),2006-034A,2026-07-07T14:17:05.836416,1.00270933,.00018316,1.8345,82.7464,69.9844,100.1641,0,U,29349,999,4152,0,-.344E-5,0
DIRECTV 9S,2006-043A,2026-07-07T13:15:53.685216,1.00271158,.0005153,2.4700,80.6616,29.1358,273.4973,0,U,29494,999,5158,0,-.1E-5,0
OPTUS D1,2006-043B,2026-07-07T14:40:26.266368,1.00271558,.00034823,3.0840,79.4094,25.0186,193.2305,0,U,29495,999,7232,0,-.17E-5,0
BADR-4,2006-051A,2026-07-07T13:54:34.975872,1.00272944,.00050179,2.0541,80.9045,26.1601,61.5605,0,U,29526,999,5147,0,.17E-5,0
WILDBLUE-1,2006-054A,2026-07-07T13:13:08.948064,1.00271908,.00013776,2.8523,80.2315,31.7416,260.6212,0,U,29643,999,5399,0,-.36E-6,0
SKYNET 5A,2007-007B,2026-07-07T14:11:58.826976,1.00272104,.00036226,5.3510,73.4932,36.6969,123.5765,0,U,30794,999,7090,0,-.26E-5,0
ANIK F3,2007-009A,2026-07-07T13:10:54.164064,1.00271626,.00026137,1.2469,83.6187,28.0788,252.8262,0,U,31102,999,4676,0,.14E-6,0
ASTRA 1L,2007-016A,2026-07-07T08:29:51.400896,1.00270275,.00054302,1.3705,81.4254,27.4700,279.3900,0,U,31306,999,4518,0,-.17E-5,0
GALAXY 17 (G-17),2007-016B,2026-07-07T13:20:30.743232,1.00272193,.00037156,3.0199,79.6469,26.5923,294.3879,0,U,31307,999,7000,0,-.193E-5,0
INTELSAT 11 (IS-11),2007-044B,2026-07-07T12:12:31.481280,0.99049489,.00038236,3.6149,78.4263,95.8557,330.7007,0,U,32253,999,6865,0,.4E-6,0
WGS F1 (USA 195),2007-046A,2026-07-06T11:52:51.570048,1.00274519,.0000585,0.0183,77.0681,128.8901,214.2607,0,U,32258,999,5252,0,-.252E-5,0
SKYNET 5B,2007-056B,2026-07-07T07:01:17.399136,1.00270957,.00037137,5.3019,73.2653,33.0721,309.3163,0,U,32294,999,6839,0,.152E-5,0
ASTRA 4A,2007-057A,2026-07-07T13:46:13.277856,1.00273879,.00025204,0.0433,284.8929,190.4827,21.5450,0,U,32299,999,5185,0,.48E-6,0
HORIZONS-2,2007-063B,2026-07-07T13:23:30.455232,1.00272137,.00037844,2.6513,80.3804,13.9296,318.2991,0,U,32388,999,6801,0,-.24E-5,0
THURAYA-3,2008-001A,2026-07-07T02:04:21.262944,1.00266478,.00020961,6.0210,35.8077,76.0926,267.9525,0,U,32404,999,6768,0,.22E-6,0
THOR 5,2008-006A,2026-07-07T06:53:55.604832,1.00272620,.00024839,0.0557,248.1878,227.1444,272.6662,0,U,32487,999,6751,0,.6E-7,0
AMC-14,2008-011A,2026-07-07T00:42:21.691872,1.00420335,.00401627,24.0333,20.2805,7.9613,341.7767,0,U,32708,999,6836,0,-.134E-5,0
DIRECTV 11,2008-013A,2026-07-07T13:16:31.124928,1.00270995,.00001717,0.0371,206.5477,259.3613,279.5529,0,U,32729,999,4579,0,-.11E-5,0
ICO G1,2008-016A,2026-07-06T03:05:11.714784,1.00270218,.00020163,5.5325,36.0865,56.9850,144.4776,0,U,32763,999,6673,0,-.16E-5,0
VINASAT-1,2008-018A,2026-07-06T14:25:13.191168,1.00270915,.0001411,0.0250,302.8791,177.8875,152.0614,0,U,32767,999,6678,0,-.314E-5,0
STAR ONE C2,2008-018B,2026-07-07T13:26:15.192384,1.00270886,.00028119,1.2893,82.2813,39.5695,300.2365,0,U,32768,999,6685,0,-.262E-5,0
AMOS-3,2008-022A,2026-07-07T14:00:19.425024,1.00485988,.00028696,0.5047,85.9440,78.9420,25.0881,0,U,32794,999,8254,0,.69E-6,0
GALAXY 18 (G-18),2008-024A,2026-07-07T12:49:11.678016,1.00272890,.00029311,0.0148,324.3874,152.2335,238.1842,0,U,32951,999,4605,0,.4E-6,0
ZHONGXING-9,2008-028A,2026-07-07T14:11:06.410688,1.00272632,.00036984,0.8177,85.1108,10.5833,135.0201,0,U,33051,999,6624,0,-.234E-5,0
SKYNET 5C,2008-030A,2026-07-07T10:14:21.410880,1.00270187,.00042913,3.8374,76.8023,40.4480,303.9236,0,U,33055,999,6615,0,-.127E-5,0
TURKSAT 3A,2008-030B,2026-07-06T22:32:49.540128,1.00273184,.00049562,0.0565,79.5546,6.9870,218.5746,0,U,33056,999,5255,0,.161E-5,0
ECHOSTAR 11,2008-035A,2026-07-07T09:22:55.342848,1.00271905,.00022825,1.0541,83.9615,20.3823,211.9534,0,U,33207,999,5141,0,-.43E-6,0
SUPERBIRD-C2,2008-038A,2026-07-07T14:23:32.443584,1.00272587,.00062273,2.4103,81.0142,35.0374,161.4019,0,U,33274,999,10593,0,-.292E-5,0
INMARSAT 4-F3,2008-039A,2026-07-07T07:26:48.425280,1.00271249,.0002729,4.3100,31.6847,79.4504,187.8350,0,U,33278,999,4674,0,-.128E-5,0
NIMIQ 4,2008-044A,2026-07-07T13:21:23.158656,1.00269896,.00019135,0.0165,47.6711,49.8481,306.3306,0,U,33373,999,6518,0,-.205E-5,0
GALAXY 19 (G-19),2008-045A,2026-07-07T13:17:08.564640,1.00271639,.00028157,0.0579,253.8498,236.3125,257.6343,0,U,33376,999,6510,0,-.124E-5,0
