JCSAT-3A                
1 29272U 06033A   26188.52680819 -.00000329  00000+0  00000+0 0  9991
2 29272   0.0330 285.8549 0002544 194.0272 123.2632  1.00272129 47948
KOREASAT 5 (MUGUNGWHA 5)
1 29349U 06034A   26188.59520644 -.00000344  00000+0  00000+0 0  9990
2 29349   1.8345  82.7464 0001831  69.9844 100.1641  1.00270933 41524
DIRECTV 9S              
1 29494U 06043A   26188.55270469 -.00000100  00000+0  00000+0 0  9994
2 29494   2.4700  80.6616 0005153  29.1358 273.4973  1.00271158 51581
OPTUS D1                
1 29495U 06043B   26188.61141512 -.00000170  00000+0  00000+0 0  9995
2 29495   3.0840  79.4094 0003482  25.0186 193.2305  1.00271558 72324
BADR-4                  
1 29526U 06051A   26188.57957148  .00000170  00000+0  00000+0 0  9993
2 29526   2.0541  80.9045 0005017  26.1601  61.5605  1.00272944 51472
WILDBLUE-1              
1 29643U 06054A   26188.55079801 -.00000036  00000+0  00000+0 0  9997
2 29643   2.8523  80.2315 0001377  31.7416 260.6212  1.00271908 53998
SKYNET 5A               
1 30794U 07007B   26188.59165309 -.00000260  00000+0  00000+0 0  9997
2 30794   5.3510  73.4932 0003622  36.6969 123.5765  1.00272104 70901
ANIK F3                 
1 31102U 07009A   26188.54923801  .00000014  00000+0  00000+0 0  9993
2 31102   1.2469  83.6187 0002613  28.0788 252.8262  1.00271626 46764
ASTRA 1L                
1 31306U 07016A   26188.35406714 -.00000170  00000+0  00000+0 0  9999
2 31306   1.3705  81.4254 0005430  27.4700 279.3900  1.00270275 45189
GALAXY 17 (G-17)        
1 31307U 07016B   26188.55591138 -.00000193  00000+0  00000+0 0  9992
2 31307   3.0199  79.6469 0003715  26.5923 294.3879  1.00272193 70006
INTELSAT 11 (IS-11)     
1 32253U 07044B   26188.50869770  .00000040  00000+0  00000+0 0  9999
2 32253   3.6149  78.4263 0003823  95.8557 330.7007  0.99049489 68652
WGS F1 (USA 195)        
1 32258U 07046A   26187.49504132 -.00000252  00000+0  00000+0 0  9997
2 32258   0.0183  77.0681 0000585 128.8901 214.2607  1.00274519 52525
SKYNET 5B               
1 32294U 07056B   26188.29256249  .00000152  00000+0  00000+0 0  9998
2 32294   5.3019  73.2653 0003713  33.0721 309.3163  1.00270957 68398
ASTRA 4A                
1 32299U 07057A   26188.57376479  .00000048  00000+0  00000+0 0  9997
2 32299   0.0433 284.8929 0002520 190.4827  21.5450  1.00273879 51852
HORIZONS-2              
1 32388U 07063B   26188.55799138 -.00000240  00000+0  00000+0 0  9997
2 32388   2.6513  80.3804 0003784  13.9296 318.2991  1.00272137 68019
THURAYA-3               
1 32404U 08001A   26188.08635721  .00000022  00000+0  00000+0 0  9991
2 32404   6.0210  35.8077 0002096  76.0926 267.9525  1.00266478 67688
THOR 5                  
1 32487U 08006A   26188.28744913  .00000006  00000+0  00000+0 0  9995
2 32487   0.0557 248.1878 0002483 227.1444 272.6662  1.00272620 67512
AMC-14                  
1 32708U 08011A   26188.02941773 -.00000134  00000+0  00000+0 0  9995
2 32708  24.0333  20.2805 0040162   7.9613 341.7767  1.00420335 68369
DIRECTV 11              
1 32729U 08013A   26188.55313802 -.00000110  00000+0  00000+0 0  9998
2 32729   0.0371 206.5477 0000171 259.3613 279.5529  1.00270995 45792
ICO G1                  
1 32763U 08016A   26187.12860781 -.00000160  00000+0  00000+0 0  9999
2 32763   5.5325  36.0865 0002016  56.9850 144.4776  1.00270218 66739
VINASAT-1               
1 32767U 08018A   26187.60084712 -.00000314  00000+0  00000+0 0  9991
2 32767   0.0250 302.8791 0001411 177.8875 152.0614  1.00270915 66785
STAR ONE C2             
1 32768U 08018B   26188.55989806 -.00000262  00000+0  00000+0 0  9997
2 32768   1.2893  82.2813 0002811  39.5695 300.2365  1.00270886 66850
AMOS-3                  
1 32794U 08022A   26188.58355816  .00000069  00000+0  00000+0 0  9996
2 32794   0.5047  85.9440 0002869  78.9420  25.0881  1.00485988 82544
GALAXY 18 (G-18)        
1 32951U 08024A   26188.53416294  .00000040  00000+0  00000+0 0  9995
2 32951   0.0148 324.3874 0002931 152.2335 238.1842  1.00272890 46054
ZHONGXING-9             
1 33051U 08028A   26188.59104642 -.00000234  00000+0  00000+0 0  9994
2 33051   0.8177  85.1108 0003698  10.5833 135.0201  1.00272632 66249
SKYNET 5C               
1 33055U 08030A   26188.42663670 -.00000127  00000+0  00000+0 0  9995
2 33055   3.8374  76.8023 0004291  40.4480 303.9236  1.00270187 66155
TURKSAT 3A              
1 33056U 08030B   26187.93946227  .00000161  00000+0  00000+0 0  9990
2 33056   0.0565  79.5546 0004956   6.9870 218.5746  1.00273184 52551
ECHOSTAR 11             
1 33207U 08035A   26188.39091832 -.00000043  00000+0  00000+0 0  9997
2 33207   1.0541  83.9615 0002282  20.3823 211.9534  1.00271905 51413
SUPERBIRD-C2            
1 33274U 08038A   26188.59968106 -.00000292  00000+0  00000+0 0  9999
2 33274   2.4103  81.0142 0006227  35.0374 161.4019  1.00272587105938
INMARSAT 4-F3           
1 33278U 08039A   26188.31028270 -.00000128  00000+0  00000+0 0  9991
2 33278   4.3100  31.6847 0002729  79.4504 187.8350  1.00271249 46740
NIMIQ 4                 
1 33373U 08044A   26188.55651804 -.00000205  00000+0  00000+0 0  9990
2 33373   0.0165  47.6711 0001913  49.8481 306.3306  1.00269896 65189
GALAXY 19 (G-19)        
1 33376U 08045A   26188.55357135 -.00000124  00000+0  00000+0 0  9994
2 33376   0.0579 253.8498 0002815 236.3125 257.6343  1.00271639 65103
